STARLINK-6164           
1 57152U 23090BD  26192.26479186 -.00000229  00000+0  11935-5 0  9994
2 57152  43.0031 285.3599 0001563 272.1722  87.8951 15.27574424169445
STARLINK-5879           
1 57153U 23090BE  26192.22382429 -.00000100  00000+0  59153-5 0  9996
2 57153  43.0022 274.6029 0001794 278.3044  81.7605 15.27578873169065
STARLINK-6106           
1 57154U 23090BF  26192.28663782 -.00001002  00000+0 -26917-4 0  9991
2 57154  43.0024 285.5214 0001295 278.0324  82.0381 15.27571599169444
STARLINK-6108           
1 57155U 23090BG  26192.30462066  .00000080  00000+0  12447-4 0  9993
2 57155  43.0034 285.6546 0001001 242.6140 117.4610 15.27574707169445
STARLINK-6137           
1 57156U 23090BH  26192.50002315  .01374235  00000+0  16707-1 0  9990
2 57156  43.0045 281.4605 0002285 279.4601 280.9206 15.56914322  5745
METEOR-M2 3             
1 57166U 23091A   26192.47946968 -.00000017  00000+0  11377-4 0  9994
2 57166  98.6070 246.9592 0005150  98.6425 261.5338 14.24048739157978
2023-091C               
1 57168U 23091C   26192.47894353  .00005125  00000+0  19622-3 0  9990
2 57168  97.5018 254.9169 0011384  29.9912 330.1976 15.26952925167968
2023-091D               
1 57169U 23091D   26192.47412517  .00004919  00000+0  20240-3 0  9997
2 57169  97.5103 254.0672 0010134  26.8165 333.3594 15.24572634167865
2023-091E               
1 57170U 23091E   26192.47428361  .00004935  00000+0  20310-3 0  9999
2 57170  97.5108 254.1466 0008847  19.7712 340.3866 15.24572570167860
2023-091F               
1 57171U 23091F   26192.47388840  .00004974  00000+0  20453-3 0  9998
2 57171  97.5104 254.0956 0011192  36.1742 324.0251 15.24574867167861
UMKA 1 (RS40S)          
1 57172U 23091G   26192.43623120  .00003778  00000+0  17272-3 0  9994
2 57172  97.5042 251.0422 0013395  41.9402 318.2857 15.21095120167697
2023-091H               
1 57173U 23091H   26192.46436582  .00007003  00000+0  24980-3 0  9991
2 57173  97.5043 255.8593 0009971  37.7423 322.4514 15.29164283168010
2023-091J               
1 57174U 23091J   26192.51010397  .00002234  00000+0  12606-3 0  9993
2 57174  97.5045 245.2601 0014623  67.8162 292.4620 15.14095886167312
CUBEBEL 2 (EU11S)       
1 57175U 23091K   26192.45637417  .00007992  00000+0  27950-3 0  9999
2 57175  97.5045 255.8978 0009946  39.1037 321.0920 15.29764839168019
SITRO-AIS 5 (KATYS)     
1 57176U 23091L   26192.46899472  .00007523  00000+0  26121-3 0  9991
2 57176  97.5054 256.6063 0011061  25.5059 334.6725 15.30011184168055
ZORKIY-2M 1             
1 57177U 23091M   26192.48673469  .00003993  00000+0  18168-3 0  9999
2 57177  97.5083 251.3774 0013764  38.6485 321.5732 15.21219758167698
CUBESX-HSE 3 (RS42S)    
1 57178U 23091N   26192.41373448  .00008030  00000+0  26353-3 0  9999
2 57178  97.5086 258.3149 0010067  15.5892 344.5658 15.31824809168136
2023-091P               
1 57179U 23091P   26192.49850563  .00002694  00000+0  14069-3 0  9997
2 57179  97.5084 248.2486 0015724  46.3953 313.8582 15.16680906167474
MONITOR-3 (RS58S)       
1 57180U 23091Q   26192.42714696  .00005969  00000+0  21879-3 0  9993
2 57180  97.5078 256.0567 0011412  22.7933 337.3811 15.28326165167992
2023-091R               
1 57181U 23091R   26192.47379574  .00001755  00000+0  98239-4 0  9995
2 57181  97.5055 246.1019 0016295  57.7100 302.5707 15.14644394167369
MONITOR-4 (RS57S)       
1 57182U 23091S   26192.47032507  .00006247  00000+0  22823-3 0  9994
2 57182  97.5072 256.0727 0011412  23.0468 337.1281 15.28412723168001
2023-091T               
1 57183U 23091T   26192.44388280  .00002978  00000+0  14453-3 0  9991
2 57183  97.5079 250.9240 0011718  34.2826 325.9162 15.19210259167656
MONITOR-2 (RS39S)       
1 57184U 23091U   26192.48833939  .00002846  00000+0  13856-3 0  9992
2 57184  97.5063 250.6153 0011749  36.1448 324.0578 15.19133419167647
2023-091V               
1 57185U 23091V   26192.47404712  .00013193  00000+0  32792-3 0  9992
2 57185  97.5053 263.7985 0005343 358.3206   1.8021 15.40424338168516
CSTP 1.2 (STC 1.2)      
1 57186U 23091W   26192.51882502  .00004892  00000+0  17412-3 0  9993
2 57186  97.5143 259.0236 0017835  12.6999 347.4686 15.29300896168179
SVYATOBOR 1 (RS60S)     
1 57187U 23091X   26192.50487358  .00005240  00000+0  20026-3 0  9996
2 57187  97.5082 256.4608 0009120  17.5045 342.6507 15.27024280168021
HORS 1                  
1 57188U 23091Y   26192.48863920  .00005407  00000+0  20581-3 0  9998
2 57188  97.5060 256.2038 0008598  17.8895 342.2645 15.27141368168023
VIZARD-METEO (RS38S)    
1 57189U 23091Z   26192.44067197  .00009874  00000+0  27673-3 0  9998
2 57189  97.5086 262.4229 0005991 355.1058   5.0126 15.36796816168411
POLYTECH-UNIVERSE 3 (R*)
1 57191U 23091AB  26192.44638056  .00003220  00000+0  15514-3 0  9999
2 57191  97.5039 250.0778 0016413  49.9933 310.2739 15.19344910167634
SITRO-AIS 6 (CHIRKIN)   
1 57192U 23091AC  26192.50468155  .00005901  00000+0  22928-3 0  9993
2 57192  97.5061 255.6307 0011563  29.2049 330.9834 15.26393933167990
