OBJECT_NAME,OBJECT_ID,EPOCH,MEAN_MOTION,ECCENTRICITY,INCLINATION,RA_OF_ASC_NODE,ARG_OF_PERICENTER,MEAN_ANOMALY,EPHEMERIS_TYPE,CLASSIFICATION_TYPE,NORAD_CAT_ID,ELEMENT_SET_NO,REV_AT_EPOCH,BSTAR,MEAN_MOTION_DOT,MEAN_MOTION_DDOT
STARLINK-6164,2023-090BD,2026-07-11T06:21:18.016704,15.27574424,.0001563,43.0031,285.3599,272.1722,87.8951,0,U,57152,999,16944,.11935E-5,-.229E-5,0
STARLINK-5879,2023-090BE,2026-07-11T05:22:18.418656,15.27578873,.0001794,43.0022,274.6029,278.3044,81.7605,0,U,57153,999,16906,.59153E-5,-.1E-5,0
STARLINK-6106,2023-090BF,2026-07-11T06:52:45.507648,15.27571599,.0001295,43.0024,285.5214,278.0324,82.0381,0,U,57154,999,16944,-.26917E-4,-.1002E-4,0
STARLINK-6108,2023-090BG,2026-07-11T07:18:39.225024,15.27574707,.0001001,43.0034,285.6546,242.6140,117.4610,0,U,57155,999,16944,.12447E-4,.8E-6,0
STARLINK-6137,2023-090BH,2026-07-11T12:00:02.000160,15.56914322,.0002285,43.0045,281.4605,279.4601,280.9206,0,U,57156,999,574,.16707E-1,.1374235E-1,0
METEOR-M2 3,2023-091A,2026-07-11T11:30:26.180352,14.24048739,.000515,98.6070,246.9592,98.6425,261.5338,0,U,57166,999,15797,.11377E-4,-.17E-6,0
2023-091C,2023-091C,2026-07-11T11:29:40.720992,15.26952925,.0011384,97.5018,254.9169,29.9912,330.1976,0,U,57168,999,16796,.19622E-3,.5125E-4,0
2023-091D,2023-091D,2026-07-11T11:22:44.414688,15.24572634,.0010134,97.5103,254.0672,26.8165,333.3594,0,U,57169,999,16786,.2024E-3,.4919E-4,0
2023-091E,2023-091E,2026-07-11T11:22:58.103904,15.24572570,.0008847,97.5108,254.1466,19.7712,340.3866,0,U,57170,999,16786,.2031E-3,.4935E-4,0
2023-091F,2023-091F,2026-07-11T11:22:23.957760,15.24574867,.0011192,97.5104,254.0956,36.1742,324.0251,0,U,57171,999,16786,.20453E-3,.4974E-4,0
UMKA 1 (RS40S),2023-091G,2026-07-11T10:28:10.375680,15.21095120,.0013395,97.5042,251.0422,41.9402,318.2857,0,U,57172,999,16769,.17272E-3,.3778E-4,0
2023-091H,2023-091H,2026-07-11T11:08:41.206848,15.29164283,.0009971,97.5043,255.8593,37.7423,322.4514,0,U,57173,999,16801,.2498E-3,.7003E-4,0
2023-091J,2023-091J,2026-07-11T12:14:32.983008,15.14095886,.0014623,97.5045,245.2601,67.8162,292.4620,0,U,57174,999,16731,.12606E-3,.2234E-4,0
CUBEBEL 2 (EU11S),2023-091K,2026-07-11T10:57:10.728288,15.29764839,.0009946,97.5045,255.8978,39.1037,321.0920,0,U,57175,999,16801,.2795E-3,.7992E-4,0
SITRO-AIS 5 (KATYS),2023-091L,2026-07-11T11:15:21.143808,15.30011184,.0011061,97.5054,256.6063,25.5059,334.6725,0,U,57176,999,16805,.26121E-3,.7523E-4,0
ZORKIY-2M 1,2023-091M,2026-07-11T11:40:53.877216,15.21219758,.0013764,97.5083,251.3774,38.6485,321.5732,0,U,57177,999,16769,.18168E-3,.3993E-4,0
CUBESX-HSE 3 (RS42S),2023-091N,2026-07-11T09:55:46.659072,15.31824809,.0010067,97.5086,258.3149,15.5892,344.5658,0,U,57178,999,16813,.26353E-3,.803E-4,0
2023-091P,2023-091P,2026-07-11T11:57:50.886432,15.16680906,.0015724,97.5084,248.2486,46.3953,313.8582,0,U,57179,999,16747,.14069E-3,.2694E-4,0
MONITOR-3 (RS58S),2023-091Q,2026-07-11T10:15:05.497344,15.28326165,.0011412,97.5078,256.0567,22.7933,337.3811,0,U,57180,999,16799,.21879E-3,.5969E-4,0
2023-091R,2023-091R,2026-07-11T11:22:15.951936,15.14644394,.0016295,97.5055,246.1019,57.7100,302.5707,0,U,57181,999,16736,.98239E-4,.1755E-4,0
MONITOR-4 (RS57S),2023-091S,2026-07-11T11:17:16.086048,15.28412723,.0011412,97.5072,256.0727,23.0468,337.1281,0,U,57182,999,16800,.22823E-3,.6247E-4,0
2023-091T,2023-091T,2026-07-11T10:39:11.473920,15.19210259,.0011718,97.5079,250.9240,34.2826,325.9162,0,U,57183,999,16765,.14453E-3,.2978E-4,0
MONITOR-2 (RS39S),2023-091U,2026-07-11T11:43:12.523296,15.19133419,.0011749,97.5063,250.6153,36.1448,324.0578,0,U,57184,999,16764,.13856E-3,.2846E-4,0
2023-091V,2023-091V,2026-07-11T11:22:37.671168,15.40424338,.0005343,97.5053,263.7985,358.3206,1.8021,0,U,57185,999,16851,.32792E-3,.13193E-3,0
CSTP 1.2 (STC 1.2),2023-091W,2026-07-11T12:27:06.481728,15.29300896,.0017835,97.5143,259.0236,12.6999,347.4686,0,U,57186,999,16817,.17412E-3,.4892E-4,0
SVYATOBOR 1 (RS60S),2023-091X,2026-07-11T12:07:01.077312,15.27024280,.000912,97.5082,256.4608,17.5045,342.6507,0,U,57187,999,16802,.20026E-3,.524E-4,0
HORS 1,2023-091Y,2026-07-11T11:43:38.426880,15.27141368,.0008598,97.5060,256.2038,17.8895,342.2645,0,U,57188,999,16802,.20581E-3,.5407E-4,0
VIZARD-METEO (RS38S),2023-091Z,2026-07-11T10:34:34.058208,15.36796816,.0005991,97.5086,262.4229,355.1058,5.0126,0,U,57189,999,16841,.27673E-3,.9874E-4,0
POLYTECH-UNIVERSE 3 (RS46S),2023-091AB,2026-07-11T10:42:47.280384,15.19344910,.0016413,97.5039,250.0778,49.9933,310.2739,0,U,57191,999,16763,.15514E-3,.322E-4,0
SITRO-AIS 6 (CHIRKIN),2023-091AC,2026-07-11T12:06:44.485920,15.26393933,.0011563,97.5061,255.6307,29.2049,330.9834,0,U,57192,999,16799,.22928E-3,.5901E-4,0
